{"type": "FeatureCollection", "features": [ {"type": "Feature", "properties": {"norad_id": 43010, "name": "FENGYUN 3D", "group": "weather", "lat": 79.2474352187525, "lon": -163.1709878058968, "alt_km": 818.5973137287492, "timestamp": "2025-12-19T22:41:52.021538+00:00", "meta": {"OBJECT_NAME": "FENGYUN 3D", "OBJECT_ID": "2017-072A", "EPOCH": "2025-12-19T18:51:53.159616", "MEAN_MOTION": 14.19684655, "ECCENTRICITY": 0.0001309, "INCLINATION": 98.9893, "RA_OF_ASC_NODE": 320.2014, "ARG_OF_PERICENTER": 159.1228, "MEAN_ANOMALY": 201.0001, "EPHEMERIS_TYPE": 0, "CLASSIFICATION_TYPE": "U", "NORAD_CAT_ID": 43010, "ELEMENT_SET_NO": 999, "REV_AT_EPOCH": 41953, "BSTAR": -0.00014027, "MEAN_MOTION_DOT": -3.43e-06, "MEAN_MOTION_DDOT": 0}, "tle": {"line1": "1 43010U 17072A   25353.78603194 -.00000343  00000+0 -14027-3 0  9999", "line2": "2 43010  98.9893 320.2014 0001309 159.1228 201.0001 14.19684655419534"}}, "geometry": {"type": "Point", "coordinates": [-163.1709878058968, 79.2474352187525]}}, {"type": "Feature", "properties": {"norad_id": 43013, "name": "NOAA 20 (JPSS-1)", "group": "weather", "lat": -62.72660979741111, "lon": 92.7597436168469, "alt_km": 835.5983577594379, "timestamp": "2025-12-19T22:41:52.021550+00:00", "meta": {"OBJECT_NAME": "NOAA 20 (JPSS-1)", "OBJECT_ID": "2017-073A", "EPOCH": "2025-12-19T18:10:06.699072", "MEAN_MOTION": 14.19527449, "ECCENTRICITY": 0.0002123, "INCLINATION": 98.7608, "RA_OF_ASC_NODE": 289.9772, "ARG_OF_PERICENTER": 77.1387, "MEAN_ANOMALY": 283.0026, "EPHEMERIS_TYPE": 0, "CLASSIFICATION_TYPE": "U", "NORAD_CAT_ID": 43013, "ELEMENT_SET_NO": 999, "REV_AT_EPOCH": 41901, "BSTAR": 4.0225e-05, "MEAN_MOTION_DOT": 4.1e-07, "MEAN_MOTION_DDOT": 0}, "tle": {"line1": "1 43013U 17073A   25353.75702198  .00000041  00000+0  40225-4 0  9997", "line2": "2 43013  98.7608 289.9772 0002123  77.1387 283.0026 14.19527449419018"}}, "geometry": {"type": "Point", "coordinates": [92.7597436168469, -62.72660979741111]}}, {"type": "Feature", "properties": {"norad_id": 43226, "name": "GOES 17", "group": "weather", "lat": -0.4544448184290393, "lon": -20.22891416373497, "alt_km": 35779.78150321032, "timestamp": "2025-12-19T22:41:52.021563+00:00", "meta": {"OBJECT_NAME": "GOES 17", "OBJECT_ID": "2018-022A", "EPOCH": "2025-12-19T11:26:17.750976", "MEAN_MOTION": 1.00270964, "ECCENTRICITY": 0.0003082, "INCLINATION": 0.474, "RA_OF_ASC_NODE": 89.1739, "ARG_OF_PERICENTER": 191.1693, "MEAN_ANOMALY": 250.0534, "EPHEMERIS_TYPE": 0, "CLASSIFICATION_TYPE": "U", "NORAD_CAT_ID": 43226, "ELEMENT_SET_NO": 999, "REV_AT_EPOCH": 2862, "BSTAR": 0, "MEAN_MOTION_DOT": -1.58e-06, "MEAN_MOTION_DDOT": 0}, "tle": {"line1": "1 43226U 18022A   25353.47659434 -.00000158  00000+0  00000+0 0  9993", "line2": "2 43226   0.4740  89.1739 0003082 191.1693 250.0534  1.00270964 28620"}}, "geometry": {"type": "Point", "coordinates": [-20.22891416373497, -0.4544448184290393]}}, {"type": "Feature", "properties": {"norad_id": 43491, "name": "FENGYUN 2H", "group": "weather", "lat": 2.3836826055305838, "lon": 148.55201772172424, "alt_km": 35787.43027129042, "timestamp": "2025-12-19T22:41:52.021577+00:00", "meta": {"OBJECT_NAME": "FENGYUN 2H", "OBJECT_ID": "2018-050A", "EPOCH": "2025-12-19T19:51:59.270976", "MEAN_MOTION": 1.00271273, "ECCENTRICITY": 0.0002392, "INCLINATION": 2.5684, "RA_OF_ASC_NODE": 81.2553, "ARG_OF_PERICENTER": 165.6942, "MEAN_ANOMALY": 219.0706, "EPHEMERIS_TYPE": 0, "CLASSIFICATION_TYPE": "U", "NORAD_CAT_ID": 43491, "ELEMENT_SET_NO": 999, "REV_AT_EPOCH": 2764, "BSTAR": 0, "MEAN_MOTION_DOT": -1.08e-06, "MEAN_MOTION_DDOT": 0}, "tle": {"line1": "1 43491U 18050A   25353.82776934 -.00000108  00000+0  00000+0 0  9997", "line2": "2 43491   2.5684  81.2553 0002392 165.6942 219.0706  1.00271273 27648"}}, "geometry": {"type": "Point", "coordinates": [148.55201772172424, 2.3836826055305838]}}, {"type": "Feature", "properties": {"norad_id": 43689, "name": "METOP-C", "group": "weather", "lat": 73.32212089731583, "lon": 20.900019755412345, "alt_km": 812.8461547517791, "timestamp": "2025-12-19T22:41:52.021588+00:00", "meta": {"OBJECT_NAME": "METOP-C", "OBJECT_ID": "2018-087A", "EPOCH": "2025-12-19T17:16:29.993376", "MEAN_MOTION": 14.21486933, "ECCENTRICITY": 9.09e-05, "INCLINATION": 98.692, "RA_OF_ASC_NODE": 51.3822, "ARG_OF_PERICENTER": 27.4381, "MEAN_ANOMALY": 332.6844, "EPHEMERIS_TYPE": 0, "CLASSIFICATION_TYPE": "U", "NORAD_CAT_ID": 43689, "ELEMENT_SET_NO": 999, "REV_AT_EPOCH": 36933, "BSTAR": 6.629e-05, "MEAN_MOTION_DOT": 1.01e-06, "MEAN_MOTION_DDOT": 0}, "tle": {"line1": "1 43689U 18087A   25353.71979159  .00000101  00000+0  66290-4 0  9998", "line2": "2 43689  98.6920  51.3822 0000909  27.4381 332.6844 14.21486933369335"}}, "geometry": {"type": "Point", "coordinates": [20.900019755412345, 73.32212089731583]}}, {"type": "Feature", "properties": {"norad_id": 43823, "name": "GEO-KOMPSAT-2A", "group": "weather", "lat": 0.020498965586943772, "lon": -162.4806867515061, "alt_km": 35786.52453324368, "timestamp": "2025-12-19T22:41:52.021599+00:00", "meta": {"OBJECT_NAME": "GEO-KOMPSAT-2A", "OBJECT_ID": "2018-100A", "EPOCH": "2025-12-19T15:35:04.232256", "MEAN_MOTION": 1.00271282, "ECCENTRICITY": 4.19e-05, "INCLINATION": 0.0523, "RA_OF_ASC_NODE": 150.9174, "ARG_OF_PERICENTER": 308.3469, "MEAN_ANOMALY": 351.2698, "EPHEMERIS_TYPE": 0, "CLASSIFICATION_TYPE": "U", "NORAD_CAT_ID": 43823, "ELEMENT_SET_NO": 999, "REV_AT_EPOCH": 2583, "BSTAR": 0, "MEAN_MOTION_DOT": -3.19e-06, "MEAN_MOTION_DDOT": 0}, "tle": {"line1": "1 43823U 18100A   25353.64935454 -.00000319  00000+0  00000+0 0  9990", "line2": "2 43823   0.0523 150.9174 0000419 308.3469 351.2698  1.00271282 25831"}}, "geometry": {"type": "Point", "coordinates": [-162.4806867515061, 0.020498965586943772]}}, {"type": "Feature", "properties": {"norad_id": 44387, "name": "METEOR-M2 2", "group": "weather", "lat": -42.142566565954674, "lon": 145.6136075468337, "alt_km": 817.4238728393839, "timestamp": "2025-12-19T22:41:52.021611+00:00", "meta": {"OBJECT_NAME": "METEOR-M2 2", "OBJECT_ID": "2019-038A", "EPOCH": "2025-12-19T18:17:00.915360", "MEAN_MOTION": 14.24294088, "ECCENTRICITY": 0.0001576, "INCLINATION": 98.897, "RA_OF_ASC_NODE": 333.5765, "ARG_OF_PERICENTER": 133.3095, "MEAN_ANOMALY": 226.8215, "EPHEMERIS_TYPE": 0, "CLASSIFICATION_TYPE": "U", "NORAD_CAT_ID": 44387, "ELEMENT_SET_NO": 999, "REV_AT_EPOCH": 33575, "BSTAR": 4.8189e-06, "MEAN_MOTION_DOT": -3.5e-07, "MEAN_MOTION_DDOT": 0}, "tle": {"line1": "1 44387U 19038A   25353.76181615 -.00000035  00000+0  48189-5 0  9993", "line2": "2 44387  98.8970 333.5765 0001576 133.3095 226.8215 14.24294088335755"}}, "geometry": {"type": "Point", "coordinates": [145.6136075468337, -42.142566565954674]}}, {"type": "Feature", "properties": {"norad_id": 47719, "name": "ARKTIKA-M 1", "group": "weather", "lat": 46.65732262923134, "lon": -129.31801698570135, "alt_km": 24082.9196221431, "timestamp": "2025-12-19T22:41:52.021624+00:00", "meta": {"OBJECT_NAME": "ARKTIKA-M 1", "OBJECT_ID": "2021-016A", "EPOCH": "2025-12-19T01:20:05.580096", "MEAN_MOTION": 2.00630571, "ECCENTRICITY": 0.7207407, "INCLINATION": 63.1758, "RA_OF_ASC_NODE": 83.1314, "ARG_OF_PERICENTER": 269.1504, "MEAN_ANOMALY": 15.5629, "EPHEMERIS_TYPE": 0, "CLASSIFICATION_TYPE": "U", "NORAD_CAT_ID": 47719, "ELEMENT_SET_NO": 999, "REV_AT_EPOCH": 3517, "BSTAR": 0, "MEAN_MOTION_DOT": -1.23e-06, "MEAN_MOTION_DDOT": 0}, "tle": {"line1": "1 47719U 21016A   25353.05562014 -.00000123  00000+0  00000+0 0  9994", "line2": "2 47719  63.1758  83.1314 7207407 269.1504  15.5629  2.00630571 35172"}}, "geometry": {"type": "Point", "coordinates": [-129.31801698570135, 46.65732262923134]}}, {"type": "Feature", "properties": {"norad_id": 49008, "name": "FENGYUN 3E", "group": "weather", "lat": 65.92760535586534, "lon": -25.777195402073296, "alt_km": 819.7167330236725, "timestamp": "2025-12-19T22:41:52.021685+00:00", "meta": {"OBJECT_NAME": "FENGYUN 3E", "OBJECT_ID": "2021-062A", "EPOCH": "2025-12-19T18:59:54.920832", "MEAN_MOTION": 14.19879875, "ECCENTRICITY": 6.96e-05, "INCLINATION": 98.7469, "RA_OF_ASC_NODE": 354.2292, "ARG_OF_PERICENTER": 214.6954, "MEAN_ANOMALY": 145.4177, "EPHEMERIS_TYPE": 0, "CLASSIFICATION_TYPE": "U", "NORAD_CAT_ID": 49008, "ELEMENT_SET_NO": 999, "REV_AT_EPOCH": 23112, "BSTAR": -4.2858e-05, "MEAN_MOTION_DOT": -1.35e-06, "MEAN_MOTION_DDOT": 0}, "tle": {"line1": "1 49008U 21062A   25353.79160788 -.00000135  00000+0 -42858-4 0  9997", "line2": "2 49008  98.7469 354.2292 0000696 214.6954 145.4177 14.19879875231122"}}, "geometry": {"type": "Point", "coordinates": [-25.777195402073296, 65.92760535586534]}}, {"type": "Feature", "properties": {"norad_id": 51850, "name": "GOES 18", "group": "weather", "lat": 0.002603478035188854, "lon": -67.7219157503737, "alt_km": 35779.49696308642, "timestamp": "2025-12-19T22:41:52.021710+00:00", "meta": {"OBJECT_NAME": "GOES 18", "OBJECT_ID": "2022-021A", "EPOCH": "2025-12-19T13:06:13.924800", "MEAN_MOTION": 1.00280535, "ECCENTRICITY": 0.0001032, "INCLINATION": 0.0096, "RA_OF_ASC_NODE": 238.6381, "ARG_OF_PERICENTER": 33.0454, "MEAN_ANOMALY": 236.2852, "EPHEMERIS_TYPE": 0, "CLASSIFICATION_TYPE": "U", "NORAD_CAT_ID": 51850, "ELEMENT_SET_NO": 999, "REV_AT_EPOCH": 479, "BSTAR": 0, "MEAN_MOTION_DOT": 1.2e-06, "MEAN_MOTION_DDOT": 0}, "tle": {"line1": "1 51850U 22021A   25353.54599450  .00000120  00000+0  00000+0 0  9996", "line2": "2 51850   0.0096 238.6381 0001032  33.0454 236.2852  1.00280535  4794"}}, "geometry": {"type": "Point", "coordinates": [-67.7219157503737, 0.002603478035188854]}}]}